IRIDIUM 33 DEB          
1 35631U 97051RD  17345.56321622  .00000427  00000-0  12428-3 0  9990
2 35631  86.3708 190.2471 0020624  73.0593 315.4200 14.41820863453191
